STARLINK-35717          
1 66839U 25280U   25365.25002315 -.01988032  00000+0 -56899-1 0  9998
2 66839  69.9992 147.7516 0003600 274.1163 161.9697 15.39345407  5872
STARLINK-35837          
1 66840U 25280V   25365.25002315 -.01943476  00000+0 -63199-1 0  9994
2 66840  69.9999 147.7996 0003530 267.7297 124.3293 15.35345545  5875
STARLINK-35715          
1 66841U 25280W   25365.25002315 -.01939734  00000+0 -63054-1 0  9997
2 66841  69.9992 147.7977 0003636 269.0205 125.0036 15.35348464  5875
STARLINK-35769          
1 66842U 25280X   25365.25002315 -.01922010  00000+0 -51037-1 0  9995
2 66842  70.0001 147.7161 0003620 272.4087 192.1822 15.41479548  5877
STARLINK-35997          
1 66843U 25280Y   25365.25002315 -.01981556  00000+0 -55628-1 0  9996
2 66843  69.9998 147.7308 0003330 274.1737 179.3189 15.39920821  5877
STARLINK-36073          
1 66844U 25280Z   25365.25002315 -.01972555  00000+0 -59034-1 0  9991
2 66844  69.9996 147.7573 0003604 272.3783 158.1119 15.37958701  5879
STARLINK-36068          
1 66845U 25280AA  25365.25002315 -.01972456  00000+0 -52731-1 0  9999
2 66845  69.9994 147.7087 0003333 275.3679 197.6617 15.41371698  5874
STARLINK-36055          
1 66846U 25280AB  25365.25002315 -.01947379  00000+0 -65120-1 0  9992
2 66846  69.9997 147.8018 0003564 268.7969 120.7740 15.34481586  5871
STARLINK-36061          
1 66847U 25280AC  25365.25002315 -.01941623  00000+0 -63383-1 0  9998
2 66847  69.9995 147.7877 0003676 270.3622 131.4877 15.35219945  5825
STARLINK-36091          
1 66848U 25281A   25365.32379448  .00108714  00000+0  18263-2 0  9993
2 66848  43.0000  10.9806 0000933 234.3565 125.7208 15.50686178  5713
STARLINK-36102          
1 66849U 25281B   25365.32345345  .00119807  00000+0  20087-2 0  9995
2 66849  42.9985  10.9759 0000747 185.6214 174.4638 15.50693695  5713
STARLINK-36105          
1 66850U 25281C   25364.42130169  .00103341  00000+0  17422-2 0  9998
2 66850  43.0021  16.2509 0002353 278.3078  81.7516 15.50610309  5573
