CCSDS_OMM_VERS = 2.0
CREATION_DATE  = 
ORIGINATOR     = 

OBJECT_NAME    = STARLINK-35717
OBJECT_ID      = 2025-280U
CENTER_NAME    = EARTH
REF_FRAME      = TEME
TIME_SYSTEM    = UTC
MEAN_ELEMENT_THEORY = SGP/SGP4

EPOCH          = 2025-12-31T06:00:02.000160
MEAN_MOTION    = 15.39345407
ECCENTRICITY   = .00036002
INCLINATION    = 69.9992
RA_OF_ASC_NODE = 147.7516
ARG_OF_PERICENTER = 274.1163
MEAN_ANOMALY   = 161.9697

EPHEMERIS_TYPE = 0
CLASSIFICATION_TYPE = U
NORAD_CAT_ID   = 66839
ELEMENT_SET_NO = 999
REV_AT_EPOCH   = 587
BSTAR          = -.56898988E-1
MEAN_MOTION_DOT = -.1988032E-1
MEAN_MOTION_DDOT = 0

CCSDS_OMM_VERS = 2.0
CREATION_DATE  = 
ORIGINATOR     = 

OBJECT_NAME    = STARLINK-35837
OBJECT_ID      = 2025-280V
CENTER_NAME    = EARTH
REF_FRAME      = TEME
TIME_SYSTEM    = UTC
MEAN_ELEMENT_THEORY = SGP/SGP4

EPOCH          = 2025-12-31T06:00:02.000160
MEAN_MOTION    = 15.35345545
ECCENTRICITY   = .00035304
INCLINATION    = 69.9999
RA_OF_ASC_NODE = 147.7996
ARG_OF_PERICENTER = 267.7297
MEAN_ANOMALY   = 124.3293

EPHEMERIS_TYPE = 0
CLASSIFICATION_TYPE = U
NORAD_CAT_ID   = 66840
ELEMENT_SET_NO = 999
REV_AT_EPOCH   = 587
BSTAR          = -.63198667E-1
MEAN_MOTION_DOT = -.1943476E-1
MEAN_MOTION_DDOT = 0

CCSDS_OMM_VERS = 2.0
CREATION_DATE  = 
ORIGINATOR     = 

OBJECT_NAME    = STARLINK-35715
OBJECT_ID      = 2025-280W
CENTER_NAME    = EARTH
REF_FRAME      = TEME
TIME_SYSTEM    = UTC
MEAN_ELEMENT_THEORY = SGP/SGP4

EPOCH          = 2025-12-31T06:00:02.000160
MEAN_MOTION    = 15.35348464
ECCENTRICITY   = .00036363
INCLINATION    = 69.9992
RA_OF_ASC_NODE = 147.7977
ARG_OF_PERICENTER = 269.0205
MEAN_ANOMALY   = 125.0036

EPHEMERIS_TYPE = 0
CLASSIFICATION_TYPE = U
NORAD_CAT_ID   = 66841
ELEMENT_SET_NO = 999
REV_AT_EPOCH   = 587
BSTAR          = -.63054274E-1
MEAN_MOTION_DOT = -.1939734E-1
MEAN_MOTION_DDOT = 0

CCSDS_OMM_VERS = 2.0
CREATION_DATE  = 
ORIGINATOR     = 

OBJECT_NAME    = STARLINK-35769
OBJECT_ID      = 2025-280X
CENTER_NAME    = EARTH
REF_FRAME      = TEME
TIME_SYSTEM    = UTC
MEAN_ELEMENT_THEORY = SGP/SGP4

EPOCH          = 2025-12-31T06:00:02.000160
MEAN_MOTION    = 15.41479548
ECCENTRICITY   = .00036208
INCLINATION    = 70.0001
RA_OF_ASC_NODE = 147.7161
ARG_OF_PERICENTER = 272.4087
MEAN_ANOMALY   = 192.1822

EPHEMERIS_TYPE = 0
CLASSIFICATION_TYPE = U
NORAD_CAT_ID   = 66842
ELEMENT_SET_NO = 999
REV_AT_EPOCH   = 587
BSTAR          = -.51037352E-1
MEAN_MOTION_DOT = -.192201E-1
MEAN_MOTION_DDOT = 0

CCSDS_OMM_VERS = 2.0
CREATION_DATE  = 
ORIGINATOR     = 

OBJECT_NAME    = STARLINK-35997
OBJECT_ID      = 2025-280Y
CENTER_NAME    = EARTH
REF_FRAME      = TEME
TIME_SYSTEM    = UTC
MEAN_ELEMENT_THEORY = SGP/SGP4

EPOCH          = 2025-12-31T06:00:02.000160
MEAN_MOTION    = 15.39920821
ECCENTRICITY   = .00033304
INCLINATION    = 69.9998
RA_OF_ASC_NODE = 147.7308
ARG_OF_PERICENTER = 274.1737
MEAN_ANOMALY   = 179.3189

EPHEMERIS_TYPE = 0
CLASSIFICATION_TYPE = U
NORAD_CAT_ID   = 66843
ELEMENT_SET_NO = 999
REV_AT_EPOCH   = 587
BSTAR          = -.55627863E-1
MEAN_MOTION_DOT = -.1981556E-1
MEAN_MOTION_DDOT = 0

CCSDS_OMM_VERS = 2.0
CREATION_DATE  = 
ORIGINATOR     = 

OBJECT_NAME    = STARLINK-36073
OBJECT_ID      = 2025-280Z
CENTER_NAME    = EARTH
REF_FRAME      = TEME
TIME_SYSTEM    = UTC
MEAN_ELEMENT_THEORY = SGP/SGP4

EPOCH          = 2025-12-31T06:00:02.000160
MEAN_MOTION    = 15.37958701
ECCENTRICITY   = .00036049
INCLINATION    = 69.9996
RA_OF_ASC_NODE = 147.7573
ARG_OF_PERICENTER = 272.3783
MEAN_ANOMALY   = 158.1119

EPHEMERIS_TYPE = 0
CLASSIFICATION_TYPE = U
NORAD_CAT_ID   = 66844
ELEMENT_SET_NO = 999
REV_AT_EPOCH   = 587
BSTAR          = -.59033577E-1
MEAN_MOTION_DOT = -.1972555E-1
MEAN_MOTION_DDOT = 0

CCSDS_OMM_VERS = 2.0
CREATION_DATE  = 
ORIGINATOR     = 

OBJECT_NAME    = STARLINK-36068
OBJECT_ID      = 2025-280AA
CENTER_NAME    = EARTH
REF_FRAME      = TEME
TIME_SYSTEM    = UTC
MEAN_ELEMENT_THEORY = SGP/SGP4

EPOCH          = 2025-12-31T06:00:02.000160
MEAN_MOTION    = 15.41371698
ECCENTRICITY   = .00033335
INCLINATION    = 69.9994
RA_OF_ASC_NODE = 147.7087
ARG_OF_PERICENTER = 275.3679
MEAN_ANOMALY   = 197.6617

EPHEMERIS_TYPE = 0
CLASSIFICATION_TYPE = U
NORAD_CAT_ID   = 66845
ELEMENT_SET_NO = 999
REV_AT_EPOCH   = 587
BSTAR          = -.52730882E-1
MEAN_MOTION_DOT = -.1972456E-1
MEAN_MOTION_DDOT = 0

CCSDS_OMM_VERS = 2.0
CREATION_DATE  = 
ORIGINATOR     = 

OBJECT_NAME    = STARLINK-36055
OBJECT_ID      = 2025-280AB
CENTER_NAME    = EARTH
REF_FRAME      = TEME
TIME_SYSTEM    = UTC
MEAN_ELEMENT_THEORY = SGP/SGP4

EPOCH          = 2025-12-31T06:00:02.000160
MEAN_MOTION    = 15.34481586
ECCENTRICITY   = .00035646
INCLINATION    = 69.9997
RA_OF_ASC_NODE = 147.8018
ARG_OF_PERICENTER = 268.7969
MEAN_ANOMALY   = 120.7740

EPHEMERIS_TYPE = 0
CLASSIFICATION_TYPE = U
NORAD_CAT_ID   = 66846
ELEMENT_SET_NO = 999
REV_AT_EPOCH   = 587
BSTAR          = -.65119621E-1
MEAN_MOTION_DOT = -.1947379E-1
MEAN_MOTION_DDOT = 0

CCSDS_OMM_VERS = 2.0
CREATION_DATE  = 
ORIGINATOR     = 

OBJECT_NAME    = STARLINK-36061
OBJECT_ID      = 2025-280AC
CENTER_NAME    = EARTH
REF_FRAME      = TEME
TIME_SYSTEM    = UTC
MEAN_ELEMENT_THEORY = SGP/SGP4

EPOCH          = 2025-12-31T06:00:02.000160
MEAN_MOTION    = 15.35219945
ECCENTRICITY   = .00036764
INCLINATION    = 69.9995
RA_OF_ASC_NODE = 147.7877
ARG_OF_PERICENTER = 270.3622
MEAN_ANOMALY   = 131.4877

EPHEMERIS_TYPE = 0
CLASSIFICATION_TYPE = U
NORAD_CAT_ID   = 66847
ELEMENT_SET_NO = 999
REV_AT_EPOCH   = 582
BSTAR          = -.63383414E-1
MEAN_MOTION_DOT = -.1941623E-1
MEAN_MOTION_DDOT = 0

CCSDS_OMM_VERS = 2.0
CREATION_DATE  = 
ORIGINATOR     = 

OBJECT_NAME    = STARLINK-36091
OBJECT_ID      = 2025-281A
CENTER_NAME    = EARTH
REF_FRAME      = TEME
TIME_SYSTEM    = UTC
MEAN_ELEMENT_THEORY = SGP/SGP4

EPOCH          = 2025-12-31T07:46:15.843072
MEAN_MOTION    = 15.50686178
ECCENTRICITY   = .00009333
INCLINATION    = 43.0000
RA_OF_ASC_NODE = 10.9806
ARG_OF_PERICENTER = 234.3565
MEAN_ANOMALY   = 125.7208

EPHEMERIS_TYPE = 0
CLASSIFICATION_TYPE = U
NORAD_CAT_ID   = 66848
ELEMENT_SET_NO = 999
REV_AT_EPOCH   = 571
BSTAR          = .18263262E-2
MEAN_MOTION_DOT = .108714E-2
MEAN_MOTION_DDOT = 0

CCSDS_OMM_VERS = 2.0
CREATION_DATE  = 
ORIGINATOR     = 

OBJECT_NAME    = STARLINK-36102
OBJECT_ID      = 2025-281B
CENTER_NAME    = EARTH
REF_FRAME      = TEME
TIME_SYSTEM    = UTC
MEAN_ELEMENT_THEORY = SGP/SGP4

EPOCH          = 2025-12-31T07:45:46.378080
MEAN_MOTION    = 15.50693695
ECCENTRICITY   = .00007474
INCLINATION    = 42.9985
RA_OF_ASC_NODE = 10.9759
ARG_OF_PERICENTER = 185.6214
MEAN_ANOMALY   = 174.4638

EPHEMERIS_TYPE = 0
CLASSIFICATION_TYPE = U
NORAD_CAT_ID   = 66849
ELEMENT_SET_NO = 999
REV_AT_EPOCH   = 571
BSTAR          = .20086959E-2
MEAN_MOTION_DOT = .119807E-2
MEAN_MOTION_DDOT = 0

CCSDS_OMM_VERS = 2.0
CREATION_DATE  = 
ORIGINATOR     = 

OBJECT_NAME    = STARLINK-36105
OBJECT_ID      = 2025-281C
CENTER_NAME    = EARTH
REF_FRAME      = TEME
TIME_SYSTEM    = UTC
MEAN_ELEMENT_THEORY = SGP/SGP4

EPOCH          = 2025-12-30T10:06:40.466016
MEAN_MOTION    = 15.50610309
ECCENTRICITY   = .0002353
INCLINATION    = 43.0021
RA_OF_ASC_NODE = 16.2509
ARG_OF_PERICENTER = 278.3078
MEAN_ANOMALY   = 81.7516

EPHEMERIS_TYPE = 0
CLASSIFICATION_TYPE = U
NORAD_CAT_ID   = 66850
ELEMENT_SET_NO = 999
REV_AT_EPOCH   = 557
BSTAR          = .17421617E-2
MEAN_MOTION_DOT = .103341E-2
MEAN_MOTION_DDOT = 0

